OBJECT_NAME,OBJECT_ID,EPOCH,MEAN_MOTION,ECCENTRICITY,INCLINATION,RA_OF_ASC_NODE,ARG_OF_PERICENTER,MEAN_ANOMALY,EPHEMERIS_TYPE,CLASSIFICATION_TYPE,NORAD_CAT_ID,ELEMENT_SET_NO,REV_AT_EPOCH,BSTAR,MEAN_MOTION_DOT,MEAN_MOTION_DDOT
ONEWEB-0667,2023-029AH,2026-07-13T14:50:17.847168,13.20772916,.00019636,87.9195,269.1648,101.9946,258.1408,0,U,55827,999,16463,.12201057E-3,.63E-6,0
ONEWEB-0669,2023-029AJ,2026-07-13T14:43:01.101216,13.20771353,.00016957,87.9188,269.1755,86.3077,273.8250,0,U,55828,999,16463,-.43483574E-3,-.164E-5,0
ONEWEB-0670,2023-029AK,2026-07-13T15:00:14.678496,13.14501899,.00016637,87.8969,284.4693,100.8221,259.3096,0,U,55829,999,16290,.69724126E-3,.271E-5,0
ONEWEB-0671,2023-029AL,2026-07-12T20:11:20.705568,13.19726372,.00019079,87.9186,299.8666,106.3785,253.7558,0,U,55830,999,16228,.26943719E-4,.24E-6,0
ONEWEB-0672,2023-029AM,2026-07-13T14:35:45.595968,13.20769515,.00021018,87.9207,269.1682,92.1961,267.9413,0,U,55831,999,16463,.14399954E-3,.72E-6,0
ONEWEB-0673,2023-029AN,2026-07-13T08:22:35.695200,13.19724738,.00018766,87.9191,299.7592,104.1214,256.0127,0,U,55832,999,16235,-.11919441E-3,-.35E-6,0
ONEWEB-0674,2023-029AP,2026-07-13T05:06:30.312576,13.14501845,.0001625,87.8956,284.5309,105.1106,255.0203,0,U,55833,999,16283,-.39707E-3,-.134E-5,0
ONEWEB-0675,2023-029AQ,2026-07-13T14:11:44.387808,13.19724035,.00022493,87.9186,299.7192,97.7748,262.3640,0,U,55834,999,16240,-.35666577E-4,-.1E-7,0
ONEWEB-0720,2023-029AR,2026-07-13T08:32:50.287776,13.19726010,.00020997,87.9183,299.7657,109.0213,251.1148,0,U,55835,999,16229,-.65081545E-4,-.13E-6,0
ONEWEB-0537,2023-043A,2026-07-13T15:23:49.541568,13.16593869,.00022783,87.9081,223.5165,87.2386,272.9006,0,U,56046,999,16244,-.18925622E-3,-.59E-6,0
ONEWEB-0538,2023-043B,2026-07-13T11:35:49.764768,13.16594238,.00023435,87.9085,223.5505,95.4012,264.7386,0,U,56047,999,16243,-.16345572E-4,.7E-7,0
ONEWEB-0546,2023-043C,2026-07-13T14:56:27.777408,13.16593809,.00023977,87.9087,223.5223,75.2146,284.9251,0,U,56048,999,16244,.27929685E-4,.24E-6,0
ONEWEB-0547,2023-043D,2026-07-13T14:10:16.371264,13.21827523,.00022459,87.9236,238.7213,102.8852,257.2533,0,U,56049,999,16171,.9438987E-4,.52E-6,0
ONEWEB-0548,2023-043E,2026-07-13T11:52:54.980256,13.16594664,.0001604,87.9077,223.5441,91.7905,268.3410,0,U,56050,999,16242,-.15769407E-3,-.47E-6,0
ONEWEB-0549,2023-043F,2026-07-13T14:01:48.129312,13.21827273,.00024609,87.9233,238.7268,97.5530,262.5884,0,U,56051,999,16171,-.13085602E-4,.8E-7,0
ONEWEB-0550,2023-043G,2026-07-13T11:53:26.158560,13.21826969,.00018648,87.9236,238.7426,97.3495,262.7851,0,U,56052,999,16170,-.43693481E-4,-.5E-7,0
ONEWEB-0551,2023-043H,2026-07-13T14:57:23.527008,13.15547553,.00023639,87.8985,253.9589,103.2915,256.8479,0,U,56053,999,15987,.34540389E-3,.143E-5,0
ONEWEB-0552,2023-043J,2026-07-13T15:24:09.261504,13.21826091,.00020969,87.9231,238.7182,100.2327,259.9044,0,U,56054,999,16172,-.10647165E-4,.9E-7,0
ONEWEB-0553,2023-043K,2026-07-13T15:05:34.862208,13.16593794,.00020803,87.9082,223.5217,84.0340,276.1028,0,U,56055,999,16245,-.38852747E-4,-.2E-7,0
ONEWEB-0554,2023-043L,2026-07-13T14:47:20.782464,13.16594142,.0001595,87.9093,223.5310,89.2674,270.8640,0,U,56056,999,16243,.27203177E-3,.117E-5,0
ONEWEB-0555,2023-043M,2026-07-13T12:03:10.902528,13.16593663,.00022458,87.9078,223.5448,78.7554,281.3829,0,U,56057,999,16242,-.7835215E-4,-.17E-6,0
ONEWEB-0557,2023-043N,2026-07-13T14:13:08.258880,13.16593666,.00013934,87.9080,223.5365,56.5115,303.6149,0,U,56058,999,16243,.61312142E-4,.36E-6,0
ONEWEB-0558,2023-043P,2026-07-13T15:14:28.510080,13.21825478,.00024706,87.9242,238.7143,94.8447,265.2969,0,U,56059,999,16173,.98519828E-4,.54E-6,0
ONEWEB-0559,2023-043Q,2026-07-13T14:57:30.966912,13.21823913,.00022821,87.9232,238.7139,98.9365,261.2028,0,U,56060,999,16174,.11415763E-3,.6E-6,0
ONEWEB-0566,2023-043R,2026-07-13T14:47:49.699680,13.21824078,.00023925,87.9227,238.7140,103.9374,256.2026,0,U,56061,999,16172,.18685605E-3,.9E-6,0
ONEWEB-0568,2023-043S,2026-07-13T14:38:13.214688,13.16596019,.00021337,87.9079,223.5225,86.5399,273.5976,0,U,56062,999,16245,.31763009E-3,.134E-5,0
ONEWEB-0574,2023-043T,2026-07-13T14:38:09.742272,13.21826012,.00020238,87.9237,238.7190,87.7721,272.3645,0,U,56063,999,16176,.17436891E-3,.85E-6,0
ONEWEB-0575,2023-043U,2026-07-13T14:29:05.582976,13.16595612,.00017855,87.9078,223.5203,84.6645,275.4689,0,U,56064,999,16244,.1613757E-3,.75E-6,0
ONEWEB-0576,2023-043V,2026-07-13T14:01:43.523328,13.16595154,.00019086,87.9082,223.5325,88.7661,271.3689,0,U,56065,999,16243,-.1428815E-3,-.42E-6,0
ONEWEB-0577,2023-043W,2026-07-13T14:10:51.465216,13.16595323,.00013572,87.9083,223.5286,79.3265,280.8019,0,U,56066,999,16246,-.305246E-6,.13E-6,0
