ONEWEB-0667             
1 55827U 23029AH  26194.61826212  .00000063  00000+0  12201-3 0  9990
2 55827  87.9195 269.1648 0001963 101.9946 258.1408 13.20772916164639
ONEWEB-0669             
1 55828U 23029AJ  26194.61320719 -.00000164  00000+0 -43484-3 0  9993
2 55828  87.9188 269.1755 0001695  86.3077 273.8250 13.20771353164637
ONEWEB-0670             
1 55829U 23029AK  26194.62516989  .00000271  00000+0  69724-3 0  9993
2 55829  87.8969 284.4693 0001663 100.8221 259.3096 13.14501899162907
ONEWEB-0671             
1 55830U 23029AL  26193.84121187  .00000024  00000+0  26944-4 0  9994
2 55830  87.9186 299.8666 0001907 106.3785 253.7558 13.19726372162280
ONEWEB-0672             
1 55831U 23029AM  26194.60816662  .00000072  00000+0  14400-3 0  9995
2 55831  87.9207 269.1682 0002101  92.1961 267.9413 13.20769515164634
ONEWEB-0673             
1 55832U 23029AN  26194.34902425 -.00000035  00000+0 -11919-3 0  9993
2 55832  87.9191 299.7592 0001876 104.1214 256.0127 13.19724738162353
ONEWEB-0674             
1 55833U 23029AP  26194.21285084 -.00000134  00000+0 -39707-3 0  9990
2 55833  87.8956 284.5309 0001625 105.1106 255.0203 13.14501845162837
ONEWEB-0675             
1 55834U 23029AQ  26194.59148597 -.00000001  00000+0 -35667-4 0  9994
2 55834  87.9186 299.7192 0002249  97.7748 262.3640 13.19724035162405
ONEWEB-0720             
1 55835U 23029AR  26194.35613759 -.00000013  00000+0 -65082-4 0  9993
2 55835  87.9183 299.7657 0002099 109.0213 251.1148 13.19726010162297
ONEWEB-0537             
1 56046U 23043A   26194.64154562 -.00000059  00000+0 -18926-3 0  9992
2 56046  87.9081 223.5165 0002278  87.2386 272.9006 13.16593869162447
ONEWEB-0538             
1 56047U 23043B   26194.48321487  .00000007  00000+0 -16346-4 0  9994
2 56047  87.9085 223.5505 0002343  95.4012 264.7386 13.16594238162430
ONEWEB-0546             
1 56048U 23043C   26194.62254372  .00000024  00000+0  27930-4 0  9998
2 56048  87.9087 223.5223 0002397  75.2146 284.9251 13.16593809162442
ONEWEB-0547             
1 56049U 23043D   26194.59046726  .00000052  00000+0  94390-4 0  9992
2 56049  87.9236 238.7213 0002245 102.8852 257.2533 13.21827523161713
ONEWEB-0548             
1 56050U 23043E   26194.49508079 -.00000047  00000+0 -15769-3 0  9995
2 56050  87.9077 223.5441 0001604  91.7905 268.3410 13.16594664162423
ONEWEB-0549             
1 56051U 23043F   26194.58458483  .00000008  00000+0 -13086-4 0  9996
2 56051  87.9233 238.7268 0002460  97.5530 262.5884 13.21827273161715
ONEWEB-0550             
1 56052U 23043G   26194.49544165 -.00000005  00000+0 -43693-4 0  9995
2 56052  87.9236 238.7426 0001864  97.3495 262.7851 13.21826969161706
ONEWEB-0551             
1 56053U 23043H   26194.62318897  .00000143  00000+0  34540-3 0  9993
2 56053  87.8985 253.9589 0002363 103.2915 256.8479 13.15547553159872
ONEWEB-0552             
1 56054U 23043J   26194.64177386  .00000009  00000+0 -10647-4 0  9997
2 56054  87.9231 238.7182 0002096 100.2327 259.9044 13.21826091161728
ONEWEB-0553             
1 56055U 23043K   26194.62887572 -.00000002  00000+0 -38853-4 0  9994
2 56055  87.9082 223.5217 0002080  84.0340 276.1028 13.16593794162450
ONEWEB-0554             
1 56056U 23043L   26194.61621276  .00000117  00000+0  27203-3 0  9992
2 56056  87.9093 223.5310 0001595  89.2674 270.8640 13.16594142162431
ONEWEB-0555             
1 56057U 23043M   26194.50220952 -.00000017  00000+0 -78352-4 0  9990
2 56057  87.9078 223.5448 0002245  78.7554 281.3829 13.16593663162422
ONEWEB-0557             
1 56058U 23043N   26194.59245670  .00000036  00000+0  61312-4 0  9991
2 56058  87.9080 223.5365 0001393  56.5115 303.6149 13.16593666162431
ONEWEB-0558             
1 56059U 23043P   26194.63505220  .00000054  00000+0  98520-4 0  9998
2 56059  87.9242 238.7143 0002470  94.8447 265.2969 13.21825478161734
ONEWEB-0559             
1 56060U 23043Q   26194.62327508  .00000060  00000+0  11416-3 0  9995
2 56060  87.9232 238.7139 0002282  98.9365 261.2028 13.21823913161740
ONEWEB-0566             
1 56061U 23043R   26194.61654745  .00000090  00000+0  18686-3 0  9990
2 56061  87.9227 238.7140 0002392 103.9374 256.2026 13.21824078161729
ONEWEB-0568             
1 56062U 23043S   26194.60987517  .00000134  00000+0  31763-3 0  9996
2 56062  87.9079 223.5225 0002133  86.5399 273.5976 13.16596019162459
ONEWEB-0574             
1 56063U 23043T   26194.60983498  .00000085  00000+0  17437-3 0  9998
2 56063  87.9237 238.7190 0002023  87.7721 272.3645 13.21826012161763
ONEWEB-0575             
1 56064U 23043U   26194.60353684  .00000075  00000+0  16138-3 0  9993
2 56064  87.9078 223.5203 0001785  84.6645 275.4689 13.16595612162440
ONEWEB-0576             
1 56065U 23043V   26194.58453152 -.00000042  00000+0 -14288-3 0  9992
2 56065  87.9082 223.5325 0001908  88.7661 271.3689 13.16595154162436
ONEWEB-0577             
1 56066U 23043W   26194.59087344  .00000013  00000+0 -30525-6 0  9992
2 56066  87.9083 223.5286 0001357  79.3265 280.8019 13.16595323162461
